[{"OBJECT_NAME":"ASTROCAST-0403","OBJECT_ID":"2023-001DG","EPOCH":"2026-03-09T19:45:35.762976","MEAN_MOTION":15.28004949,"ECCENTRICITY":0.00047706,"INCLINATION":97.5604,"RA_OF_ASC_NODE":161.3228,"ARG_OF_PERICENTER":338.0704,"MEAN_ANOMALY":22.033,"EPHEMERIS_TYPE":0,"CLASSIFICATION_TYPE":"U","NORAD_CAT_ID":55111,"ELEMENT_SET_NO":999,"REV_AT_EPOCH":12937,"BSTAR":0.0005131719,"MEAN_MOTION_DOT":0.00013959,"MEAN_MOTION_DDOT":0},{"OBJECT_NAME":"STARLINK-34032","OBJECT_ID":"2025-093T","EPOCH":"2026-03-09T08:38:30.483456","MEAN_MOTION":15.27612498,"ECCENTRICITY":0.00016929,"INCLINATION":43.0041,"RA_OF_ASC_NODE":79.5819,"ARG_OF_PERICENTER":279.4228,"MEAN_ANOMALY":80.6433,"EPHEMERIS_TYPE":0,"CLASSIFICATION_TYPE":"U","NORAD_CAT_ID":63853,"ELEMENT_SET_NO":999,"REV_AT_EPOCH":4792,"BSTAR":0.0013634646,"MEAN_MOTION_DOT":0.00037486,"MEAN_MOTION_DDOT":0}]
